FENGYUN 3D              
1 43010U 17072A   26159.83132985  .00000329  00000+0  17736-3 0  9997
2 43010  99.0126 134.1027 0002629  75.5711 284.5756 14.19738730443809
NOAA 20 (JPSS-1)        
1 43013U 17073A   26159.82491030  .00000054  00000+0  46431-4 0  9999
2 43013  98.7770  99.3620 0000447  42.4915 317.6295 14.19510272443286
GOES 17                 
1 43226U 18022A   26159.61118868 -.00000166  00000+0  00000+0 0  9994
2 43226   0.9144  85.8701 0000619  12.2529 289.4177  1.00271794 30331
SENTINEL-3B             
1 43437U 18039A   26159.77411661  .00000112  00000+0  64303-4 0  9991
2 43437  98.6249 227.4269 0000852  78.1510 281.9766 14.26739508422923
FENGYUN 2H              
1 43491U 18050A   26159.85831333 -.00000114  00000+0  00000+0 0  9997
2 43491   3.0089  79.1709 0001577 126.4730  80.0423  1.00271245 29357
METOP-C                 
1 43689U 18087A   26159.76232730  .00000100  00000+0  65340-4 0  9999
2 43689  98.6646 219.5196 0001449 138.7732 221.3555 14.21509928393631
GEO-KOMPSAT-2A          
1 43823U 18100A   26159.79690619 -.00000327  00000+0  00000+0 0  9991
2 43823   0.0500 132.6433 0002289 311.6317 228.0565  1.00270575 27545
METEOR-M2 2             
1 44387U 19038A   26159.81512817 -.00000019  00000+0  11713-4 0  9990
2 44387  98.9147 146.9772 0002305  60.5994 299.5414 14.24363055360102
ARKTIKA-M 1             
1 47719U 21016A   26153.03917935 -.00000200  00000+0  00000+0 0  9993
2 47719  63.2379  59.8266 7283239 269.8643  14.6915  2.00628509 38489
FENGYUN 3E              
1 49008U 21062A   26159.88659617 -.00000159  00000+0 -54082-4 0  9994
2 49008  98.7498 163.3872 0002772  99.4909 260.6581 14.19903017255405
GOES 18                 
1 51850U 22021A   26159.74437780  .00000113  00000+0  00000+0 0  9992
2 51850   0.0313 150.9367 0000496 342.8214 254.3470  1.00270960  6503
NOAA 21 (JPSS-2)        
1 54234U 22150A   26159.78763308  .00000069  00000+0  53406-4 0  9999
2 54234  98.7058  98.7179 0001166 174.5709 185.5480 14.19564083185359
METEOSAT-12 (MTG-I1)    
1 54743U 22170C   26159.77136603  .00000008  00000+0  00000+0 0  9997
2 54743   0.7285  21.4828 0003385  71.1805  81.7589  1.00271628 12898
TIANMU-1 03             
1 55973U 23039A   26159.83627146  .00015113  00000+0  30048-3 0  9994
2 55973  97.5237 333.4806 0004126 119.5863 240.5798 15.47048061179544
TIANMU-1 04             
1 55974U 23039B   26159.82895225  .00015807  00000+0  30781-3 0  9993
2 55974  97.5174 332.6261 0004734 116.8428 243.3306 15.47637602179555
TIANMU-1 05             
1 55975U 23039C   26159.81663722  .00015271  00000+0  30437-3 0  9991
2 55975  97.5216 333.0784 0003792 134.4839 225.6721 15.46974184179522
TIANMU-1 06             
1 55976U 23039D   26159.83182066  .00015515  00000+0  30318-3 0  9990
2 55976  97.5226 333.7213 0004043 131.2285 228.9313 15.47544600179551
FENGYUN 3G              
1 56232U 23055A   26159.80379863  .00026305  00000+0  39785-3 0  9990
2 56232  49.9936  29.2119 0005595 166.0096 194.1028 15.54443028178700
METEOR-M2 3             
1 57166U 23091A   26159.87778037  .00000000  00000+0  18879-4 0  9996
2 57166  98.6085 215.0258 0003880 177.5354 182.5845 14.24046112153330
TIANMU-1 07             
1 57399U 23101A   26159.85821845  .00006018  00000+0  21164-3 0  9995
2 57399  97.2598 210.7184 0003618 138.9895 221.1619 15.29711332160372
TIANMU-1 08             
1 57400U 23101B   26159.82488385  .00006739  00000+0  23657-3 0  9992
2 57400  97.2587 210.4575 0005182 135.5552 224.6106 15.29717013160365
TIANMU-1 09             
1 57401U 23101C   26159.87387220  .00006495  00000+0  22795-3 0  9995
2 57401  97.2544 209.9254 0004008 146.1259 214.0239 15.29744916160377
TIANMU-1 10             
1 57402U 23101D   26159.84135479  .00006464  00000+0  22704-3 0  9996
2 57402  97.2625 210.9356 0005580 148.2614 211.8964 15.29715630160367
FENGYUN 3F              
1 57490U 23111A   26159.87070637  .00000060  00000+0  48847-4 0  9994
2 57490  98.6836 230.0341 0001576  98.8531 261.2824 14.19937785147688
ARKTIKA-M 2             
1 58584U 23198A   26154.30372208  .00000150  00000+0  00000+0 0  9990
2 58584  63.2209 155.9142 6898549 267.4684  18.7857  2.00591941 18047
TIANMU-1 11             
1 58645U 23205A   26159.86200373  .00006095  00000+0  23308-3 0  9990
2 58645  97.3454 181.5499 0009913  44.0360 316.1667 15.26910511136256
TIANMU-1 12             
1 58646U 23205B   26159.89770125  .00005784  00000+0  22170-3 0  9991
2 58646  97.3442 181.3425 0007752  31.5105 328.6597 15.26872637136243
TIANMU-1 13             
1 58647U 23205C   26159.86355022  .00005857  00000+0  22549-3 0  9995
2 58647  97.3469 181.5802 0006921  12.5271 347.6139 15.26726343136238
TIANMU-1 14             
1 58648U 23205D   26159.84899933  .00006012  00000+0  23101-3 0  9997
2 58648  97.3405 180.7542 0007891  15.8725 344.2760 15.26771775136230
TIANMU-1 19             
1 58660U 23208A   26159.85850096  .00008522  00000+0  28306-3 0  9992
2 58660  97.4491 276.1174 0004522   2.7829 357.3436 15.31449741136055
TIANMU-1 20             
1 58661U 23208B   26159.83747883  .00008043  00000+0  25750-3 0  9998
2 58661  97.4433 276.7229 0006784   5.9883 354.1439 15.32640540136145
