OBJECT_NAME,OBJECT_ID,EPOCH,MEAN_MOTION,ECCENTRICITY,INCLINATION,RA_OF_ASC_NODE,ARG_OF_PERICENTER,MEAN_ANOMALY,EPHEMERIS_TYPE,CLASSIFICATION_TYPE,NORAD_CAT_ID,ELEMENT_SET_NO,REV_AT_EPOCH,BSTAR,MEAN_MOTION_DOT,MEAN_MOTION_DDOT
FENGYUN 3D,2017-072A,2026-06-08T19:57:06.899040,14.19738730,.0002629,99.0126,134.1027,75.5711,284.5756,0,U,43010,999,44380,.17736E-3,.329E-5,0
NOAA 20 (JPSS-1),2017-073A,2026-06-08T19:47:52.249920,14.19510272,.0000447,98.7770,99.3620,42.4915,317.6295,0,U,43013,999,44328,.46431E-4,.54E-6,0
GOES 17,2018-022A,2026-06-08T14:40:06.701952,1.00271794,.0000619,0.9144,85.8701,12.2529,289.4177,0,U,43226,999,3033,0,-.166E-5,0
SENTINEL-3B,2018-039A,2026-06-08T18:34:43.675104,14.26739508,.0000852,98.6249,227.4269,78.1510,281.9766,0,U,43437,999,42292,.64303E-4,.112E-5,0
FENGYUN 2H,2018-050A,2026-06-08T20:35:58.271712,1.00271245,.0001577,3.0089,79.1709,126.4730,80.0423,0,U,43491,999,2935,0,-.114E-5,0
METOP-C,2018-087A,2026-06-08T18:17:45.078720,14.21509928,.0001449,98.6646,219.5196,138.7732,221.3555,0,U,43689,999,39363,.6534E-4,.1E-5,0
GEO-KOMPSAT-2A,2018-100A,2026-06-08T19:07:32.694816,1.00270575,.0002289,0.0500,132.6433,311.6317,228.0565,0,U,43823,999,2754,0,-.327E-5,0
METEOR-M2 2,2019-038A,2026-06-08T19:33:47.073888,14.24363055,.0002305,98.9147,146.9772,60.5994,299.5414,0,U,44387,999,36010,.11713E-4,-.19E-6,0
ARKTIKA-M 1,2021-016A,2026-06-02T00:56:25.095840,2.00628509,.72832396,63.2379,59.8266,269.8643,14.6915,0,U,47719,999,3848,0,-.2E-5,0
FENGYUN 3E,2021-062A,2026-06-08T21:16:41.909088,14.19903017,.0002772,98.7498,163.3872,99.4909,260.6581,0,U,49008,999,25540,-.54082E-4,-.159E-5,0
GOES 18,2022-021A,2026-06-08T17:51:54.241920,1.00270960,.0000496,0.0313,150.9367,342.8214,254.3470,0,U,51850,999,650,0,.113E-5,0
NOAA 21 (JPSS-2),2022-150A,2026-06-08T18:54:11.498112,14.19564083,.0001166,98.7058,98.7179,174.5709,185.5480,0,U,54234,999,18535,.53406E-4,.69E-6,0
METEOSAT-12 (MTG-I1),2022-170C,2026-06-08T18:30:46.024992,1.00271628,.0003385,0.7285,21.4828,71.1805,81.7589,0,U,54743,999,1289,0,.8E-7,0
TIANMU-1 03,2023-039A,2026-06-08T20:04:13.854144,15.47048061,.0004126,97.5237,333.4806,119.5863,240.5798,0,U,55973,999,17954,.30048E-3,.15113E-3,0
TIANMU-1 04,2023-039B,2026-06-08T19:53:41.474400,15.47637602,.0004734,97.5174,332.6261,116.8428,243.3306,0,U,55974,999,17955,.30781E-3,.15807E-3,0
TIANMU-1 05,2023-039C,2026-06-08T19:35:57.455808,15.46974184,.0003792,97.5216,333.0784,134.4839,225.6721,0,U,55975,999,17952,.30437E-3,.15271E-3,0
TIANMU-1 06,2023-039D,2026-06-08T19:57:49.305024,15.47544600,.0004043,97.5226,333.7213,131.2285,228.9313,0,U,55976,999,17955,.30318E-3,.15515E-3,0
FENGYUN 3G,2023-055A,2026-06-08T19:17:28.201632,15.54443028,.0005595,49.9936,29.2119,166.0096,194.1028,0,U,56232,999,17870,.39785E-3,.26305E-3,0
METEOR-M2 3,2023-091A,2026-06-08T21:04:00.223968,14.24046112,.000388,98.6085,215.0258,177.5354,182.5845,0,U,57166,999,15333,.18879E-4,0,0
TIANMU-1 07,2023-101A,2026-06-08T20:35:50.074080,15.29711332,.0003618,97.2598,210.7184,138.9895,221.1619,0,U,57399,999,16037,.21164E-3,.6018E-4,0
TIANMU-1 08,2023-101B,2026-06-08T19:47:49.964640,15.29717013,.0005182,97.2587,210.4575,135.5552,224.6106,0,U,57400,999,16036,.23657E-3,.6739E-4,0
TIANMU-1 09,2023-101C,2026-06-08T20:58:22.558080,15.29744916,.0004008,97.2544,209.9254,146.1259,214.0239,0,U,57401,999,16037,.22795E-3,.6495E-4,0
TIANMU-1 10,2023-101D,2026-06-08T20:11:33.053856,15.29715630,.000558,97.2625,210.9356,148.2614,211.8964,0,U,57402,999,16036,.22704E-3,.6464E-4,0
FENGYUN 3F,2023-111A,2026-06-08T20:53:49.030368,14.19937785,.0001576,98.6836,230.0341,98.8531,261.2824,0,U,57490,999,14768,.48847E-4,.6E-6,0
ARKTIKA-M 2,2023-198A,2026-06-03T07:17:21.587712,2.00591941,.68985494,63.2209,155.9142,267.4684,18.7857,0,U,58584,999,1804,0,.15E-5,0
TIANMU-1 11,2023-205A,2026-06-08T20:41:17.122272,15.26910511,.0009913,97.3454,181.5499,44.0360,316.1667,0,U,58645,999,13625,.23308E-3,.6095E-4,0
TIANMU-1 12,2023-205B,2026-06-08T21:32:41.388000,15.26872637,.0007752,97.3442,181.3425,31.5105,328.6597,0,U,58646,999,13624,.2217E-3,.5784E-4,0
TIANMU-1 13,2023-205C,2026-06-08T20:43:30.739008,15.26726343,.0006921,97.3469,181.5802,12.5271,347.6139,0,U,58647,999,13623,.22549E-3,.5857E-4,0
TIANMU-1 14,2023-205D,2026-06-08T20:22:33.542112,15.26771775,.0007891,97.3405,180.7542,15.8725,344.2760,0,U,58648,999,13623,.23101E-3,.6012E-4,0
TIANMU-1 19,2023-208A,2026-06-08T20:36:14.482944,15.31449741,.0004522,97.4491,276.1174,2.7829,357.3436,0,U,58660,999,13605,.28306E-3,.8522E-4,0
TIANMU-1 20,2023-208B,2026-06-08T20:05:58.170912,15.32640540,.0006784,97.4433,276.7229,5.9883,354.1439,0,U,58661,999,13614,.2575E-3,.8043E-4,0
